#aV2013  7 28  0  0  0.00000000     288 DD+AD WGS84 FIT  NGA
## 1751      0.00000000   300.00000000 56501 0.0000000000000
+   31     1  2  3  4  5  6  7  8  9 10 11 12 13 14 15 16 17
+         18 19 20 21 22 23 24 25 26 27 28 29 31 32  0  0  0
+          0  0  0  0  0  0  0  0  0  0  0  0  0  0  0  0  0
+          0  0  0  0  0  0  0  0  0  0  0  0  0  0  0  0  0
+          0  0  0  0  0  0  0  0  0  0  0  0  0  0  0  0  0
++         2  2  2  2  2  2  2  2  2  2  2  2  2  2  2  2  2
++         2  2  2  2  2  2  2  2  2  2  2  2  2  2  2  0  0
++         0  0  0  0  0  0  0  0  0  0  0  0  0  0  0  0  0
++         0  0  0  0  0  0  0  0  0  0  0  0  0  0  0  0  0
++         0  0  0  0  0  0  0  0  0  0  0  0  0  0  0  0  0
%c cc cc ccc ccc cccc cccc cccc cccc ccccc ccccc ccccc ccccc
%c cc cc ccc ccc cccc cccc cccc cccc ccccc ccccc ccccc ccccc
%f  0.0000000  0.000000000  0.00000000000  0.000000000000000
%f  0.0000000  0.000000000  0.00000000000  0.000000000000000
%i    0    0    0    0      0      0      0      0         0
%i    0    0    0    0      0      0      0      0         0
/*      NGA, ST. LOUIS,MO.                                  
/*   EPHEMERIS COMPUTED FROM  1 DAYS OF DATA
/*   EPOCHA SMOOTHER  
/* CCCCCCCCCCCCCCCCCCCCCCCCCCCCCCCCCCCCCCCCCCCCCCCCCCCCCCCCC
*  2013  7 28 21  0  0.00000000                                                 
P  1  14844.260220  -3345.861279  21749.759564     56.063435                    
V  1   6828.657178  26810.055212   -439.127997      0.049041                    
P  2 -13629.639060 -20487.341362 -10405.394823    443.915898                    
V  2   -973.647255 -13647.418339  27053.657860      0.018071                    
P  3  23587.067019   9447.635026  -8615.346337    238.700366                    
V  3 -10512.063127   1720.294596 -28458.926551      0.051097                    
P  4  -7089.248245 -25438.074477   -567.742892    284.844041                    
V  4   3554.823114  -1334.879210  31409.338074      0.103823                    
P  5 -13620.051439  -8106.863980 -21351.994414   -399.086151                    
V  5  19010.757815 -19294.880313  -4661.950947     -0.003651                    
P  6  19450.769740  13377.284295 -12468.313099    120.581246                    
V  6 -16022.742702   -796.445411 -25331.401818     -0.184113                    
P  7   7582.242240 -18595.286837 -17168.964405    241.182404                    
V  7   6646.437907  21022.242259 -20082.785871      0.042216                    
P  8   1918.941067 -24808.466478  -8239.580690      7.643038                    
V  8   3469.093167  10381.837124 -30613.284875      0.001980                    
P  9  -1549.571789 -25553.061638  -7376.046906    257.591700                    
V  9   4063.119996   7874.622629 -30504.322566      0.025379                    
P 10   1839.203272 -19634.482705 -17892.280365    -88.583330                    
V 10  17638.241586 -13874.364591  17743.919301     -0.013618                    
P 11  19113.879279   3657.838110  17724.493381   -405.081847                    
V 11  10263.412230  21415.386107 -14841.103905     -0.034977                    
P 12 -21293.711840   6757.579741  14157.554711    147.368178                    
V 12  12166.859820 -13502.907510  24866.369202      0.021544                    
P 13  15980.471005  -7988.942253 -19834.903785     95.485325                    
V 13  22762.615144   9864.994114  14326.442800     -0.037107                    
P 14   4538.698020  16488.047806  20572.053326    218.767408                    
V 14 -24331.814829  -7911.491579  11677.078876     -0.005194                    
P 15 -25983.138360  -2103.283251   5745.665109   -129.678164                    
V 15  -6335.352578  -4790.679569 -29988.961446     -0.017252                    
P 16  12683.240380   8190.200667 -21915.638488   -249.533679                    
V 16 -20619.013843  18414.279802  -4730.694790      0.005701                    
P 17  -3117.684660 -16276.888281  21025.671596     -5.594182                    
V 17  25049.948630   7435.710013   9340.889529     -0.038194                    
P 18 -14847.888716  21035.003974   6135.120293    265.920349                    
V 18  -8043.012741   2344.117397 -29875.613181      0.018758                    
P 19  25442.385233   8095.833843   2172.619346   -392.339414                    
V 19   1820.224034   3226.313629 -31374.899385     -0.029342                    
P 20  21205.091197 -12761.739682   9371.736019    112.188641                    
V 20  -5621.662291  11425.991875  27841.382727      0.023562                    
P 21  -5102.585220  21439.996579 -13868.603503   -310.735174                    
V 21  -7941.037639 -17442.752526 -23603.076950     -0.019485                    
P 22  -5052.373399  21142.812302  15364.352839    177.603098                    
V 22 -15763.698976  11514.471265 -21458.085982      0.014296                    
P 23  23419.456629  -2435.673953 -12597.406144     62.677628                    
V 23  14733.382604   6574.420849  25546.994629     -0.035260                    
P 24 -15758.704665   -942.812386  21354.184187    -10.822097                    
V 24  -6478.424935 -26360.711314  -5898.991413     -0.007698                    
P 25 -19756.506597  17537.342246   2124.431193    128.355059                    
V 25    212.909483  -3727.017692  31944.244581      0.049601                    
P 26 -21691.668820 -13904.437356  -7744.002682    117.206530                    
V 26   8905.871714   1549.241059 -29935.678882      0.170326                    
P 27  21642.483735  12504.243439  -9006.094529    -16.716683                    
V 27 -11692.636043   -569.907685 -28903.672833     -0.049251                    
P 28   9389.234244 -20700.649589  14173.412292    279.558399                    
V 28  13872.898836 -10018.045651 -25021.939273      0.031976                    
P 29 -17581.406120   7503.603144 -18375.666228    457.507971                    
V 29 -21762.813983  -8789.511514  17234.025470      0.032432                    
P 31   6578.601075  25544.646531  -1034.449881    321.968191                    
V 31  -2036.754458   2033.679327  32334.907992      0.010303                    
P 32  20875.712479  -2255.820930  16065.601917   -556.977938                    
V 32 -14221.819027  14859.991037  21246.038042      0.012431                    
EOF
